STARLINK-37175          
1 68401U 26063X   26159.66201185  .00029633  00000+0  91722-3 0  9994
2 68401  97.2861 301.9676 0001073 104.5566 255.5796 15.33424535 11831
STARLINK-36360          
1 68402U 26063Y   26159.64026429  .00026539  00000+0  82132-3 0  9996
2 68402  97.2871 301.9998 0000929 110.9222 249.2120 15.33452291 11830
STARLINK-37218          
1 68403U 26063Z   26159.37872568  .00178493  00000+0  11702-2 0  9991
2 68403  97.2850 303.7284 0001196  83.6051 276.5350 15.75239085 11927
STARLINK-37188          
1 68404U 26063AA  26159.35477037  .00021119  00000+0  65445-3 0  9998
2 68404  97.2856 301.7753 0000494 154.9610 205.1656 15.33454849 11799
STARLINK-37262          
1 68508U 26068A   26159.01231451  .00028045  00000+0  84024-3 0  9998
2 68508  53.1589  62.5116 0001465  75.6563 284.4602 15.34317852 10870
STARLINK-36292          
1 68509U 26068B   26159.03432929  .00027168  00000+0  81273-3 0  9992
2 68509  53.1577  67.7387 0001114  55.7009 304.4099 15.34383368 10801
STARLINK-37260          
1 68510U 26068C   26159.02121286  .00040938  00000+0  12168-2 0  9990
2 68510  53.1589  66.1957 0001332  68.8045 291.3100 15.34382892 10829
STARLINK-37280          
1 68511U 26068D   26159.04794382  .00041129  00000+0  11841-2 0  9996
2 68511  53.1604  62.0280 0001268  61.7982 298.3149 15.35386156 10886
STARLINK-37286          
1 68512U 26068E   26159.83336806 -.00009812  00000+0 -27966-3 0  9998
2 68512  53.1596  58.1525 0001485 106.9982  18.4784 15.34395539  5961
STARLINK-36250          
1 68513U 26068F   26159.03853475  .00030970  00000+0  92466-3 0  9991
2 68513  53.1579  67.7715 0000600  61.0099 299.0964 15.34376259 10802
STARLINK-37251          
1 68514U 26068G   26159.83336806 -.01585518  00000+0 -50458-1 0  9993
2 68514  53.1605  64.5761 0001430  70.2536 106.3879 15.35535759  5845
STARLINK-36293          
1 68515U 26068H   26159.01338092  .00035346  00000+0  10529-2 0  9995
2 68515  53.1605  68.3276 0001558  79.2483 280.8695 15.34382218 10793
STARLINK-36290          
1 68516U 26068J   26159.04484822  .00036179  00000+0  10771-2 0  9996
2 68516  53.1580  67.8039 0001190  78.3163 281.7973 15.34390230 10808
STARLINK-36298          
1 68517U 26068K   26159.47683366  .00082104  00000+0  18757-2 0  9999
2 68517  53.1586  66.2630 0001887  95.5499 264.5723 15.42164858 10863
STARLINK-36857          
1 68518U 26068L   26158.98602115  .00024000  00000+0  71910-3 0  9990
2 68518  53.1582  68.1560 0001897 141.3596 218.7543 15.34403002 10793
STARLINK-36326          
1 68519U 26068M   26159.44829592  .00021455  00000+0  64423-3 0  9995
2 68519  53.1583  66.0649 0000832 101.1579 258.9517 15.34403801 10865
STARLINK-37126          
1 68520U 26068N   26159.04696773  .00051020  00000+0  15094-2 0  9996
2 68520  53.1574  67.8234 0001207 102.1469 257.9669 15.34430987 10808
STARLINK-36347          
1 68521U 26068P   26159.47685860  .00017904  00000+0  61484-3 0  9997
2 68521  53.1590  67.6561 0001112 102.2098 257.9027 15.30217249 10844
STARLINK-36322          
1 68522U 26068Q   26159.45039427  .00020940  00000+0  62926-3 0  9994
2 68522  53.1580  66.0720 0001112 117.0072 243.1045 15.34395026 10863
STARLINK-37208          
1 68523U 26068R   26159.03643212  .00035372  00000+0  10537-2 0  9997
2 68523  53.1583  67.7528 0001288  73.9180 286.1965 15.34380673 10809
STARLINK-36302          
1 68524U 26068S   26159.45671170  .00023873  00000+0  71561-3 0  9996
2 68524  53.1587  66.1187 0001380  76.2973 283.8183 15.34392846 10864
STARLINK-36311          
1 68525U 26068T   26159.84542116  .00021838  00000+0  65548-3 0  9994
2 68525  53.1587  64.2769 0001270  72.7350 287.3791 15.34404884 10925
STARLINK-37178          
1 68526U 26068U   26159.83336806  .00020627  00000+0  37828-3 0  9996
2 68526  53.1594  63.9319 0001176  91.6699  47.1807 15.49283800  5891
STARLINK-37248          
1 68527U 26068V   26159.45192794  .00047042  00000+0  13941-2 0  9990
2 68527  53.1582  63.8939 0001128  84.6529 275.4602 15.34413514 10893
STARLINK-37241          
1 68528U 26068W   26159.03126207  .00022191  00000+0  75916-3 0  9990
2 68528  53.1584  69.8524 0000986  75.7874 284.3236 15.30197604 10771
STARLINK-37244          
1 68529U 26068X   26159.46723128  .00017274  00000+0  52146-3 0  9999
2 68529  53.1595  66.1852 0001501  77.0432 283.0738 15.34384181 10862
STARLINK-36285          
1 68530U 26068Y   26159.02809942  .00032261  00000+0  10969-2 0  9991
2 68530  53.1593  69.8345 0001368  81.9049 278.2107 15.30191556 10772
STARLINK-36294          
1 68531U 26068Z   26159.80872125  .00019617  00000+0  67351-3 0  9999
2 68531  53.1596  66.1743 0001396  73.2546 286.8608 15.30161503 10898
STARLINK-36249          
1 68532U 26068AA  26159.46510104  .00031711  00000+0  94538-3 0  9994
2 68532  53.1580  66.1705 0000360 304.4507  55.6461 15.34410249 10860
STARLINK-36252          
1 68533U 26068AB  26159.45881405  .00022238  00000+0  66757-3 0  9995
2 68533  53.1600  66.1245 0001315  61.4324 298.6811 15.34389546 10864
