OBJECT_NAME,OBJECT_ID,EPOCH,MEAN_MOTION,ECCENTRICITY,INCLINATION,RA_OF_ASC_NODE,ARG_OF_PERICENTER,MEAN_ANOMALY,EPHEMERIS_TYPE,CLASSIFICATION_TYPE,NORAD_CAT_ID,ELEMENT_SET_NO,REV_AT_EPOCH,BSTAR,MEAN_MOTION_DOT,MEAN_MOTION_DDOT
STARLINK-37175,2026-063X,2026-06-08T15:53:17.823840,15.33424535,.0001073,97.2861,301.9676,104.5566,255.5796,0,U,68401,999,1183,.91722E-3,.29633E-3,0
STARLINK-36360,2026-063Y,2026-06-08T15:21:58.834656,15.33452291,.0000929,97.2871,301.9998,110.9222,249.2120,0,U,68402,999,1183,.82132E-3,.26539E-3,0
STARLINK-37218,2026-063Z,2026-06-08T09:05:21.897888,15.75239085,.0001197,97.2850,303.7284,83.6051,276.5350,0,U,68403,999,1192,.11702E-2,.178493E-2,0
STARLINK-37188,2026-063AA,2026-06-08T08:30:52.159104,15.33454849,.0000495,97.2856,301.7753,154.9610,205.1656,0,U,68404,999,1179,.65445E-3,.21119E-3,0
STARLINK-37262,2026-068A,2026-06-08T00:17:43.972800,15.34317852,.0001465,53.1589,62.5116,75.6563,284.4602,0,U,68508,999,1087,.84024E-3,.28045E-3,0
STARLINK-36292,2026-068B,2026-06-08T00:49:26.050656,15.34383368,.00011142,53.1577,67.7387,55.7009,304.4099,0,U,68509,999,1080,.81273208E-3,.27168E-3,0
STARLINK-37260,2026-068C,2026-06-08T00:30:32.791104,15.34382892,.00013325,53.1589,66.1957,68.8045,291.3100,0,U,68510,999,1082,.12168045E-2,.40938E-3,0
STARLINK-37280,2026-068D,2026-06-08T01:09:02.346048,15.35386156,.00012688,53.1604,62.0280,61.7982,298.3149,0,U,68511,999,1088,.11840698E-2,.41129E-3,0
STARLINK-37286,2026-068E,2026-06-08T20:00:03.000384,15.34395539,.0001485,53.1596,58.1525,106.9982,18.4784,0,U,68512,999,596,-.27966E-3,-.9812E-4,0
STARLINK-36250,2026-068F,2026-06-08T00:55:29.402400,15.34376259,.00006006,53.1579,67.7715,61.0099,299.0964,0,U,68513,999,1080,.92465736E-3,.3097E-3,0
STARLINK-37251,2026-068G,2026-06-08T20:00:03.000384,15.35535759,.000143,53.1605,64.5761,70.2536,106.3879,0,U,68514,999,584,-.50458E-1,-.1585518E-1,0
STARLINK-36293,2026-068H,2026-06-08T00:19:16.110624,15.34382218,.0001558,53.1605,68.3276,79.2483,280.8695,0,U,68515,999,1079,.10529E-2,.35346E-3,0
STARLINK-36290,2026-068J,2026-06-08T01:04:34.886208,15.34390230,.00011901,53.1580,67.8039,78.3163,281.7973,0,U,68516,999,1080,.10770815E-2,.36179E-3,0
STARLINK-36298,2026-068K,2026-06-08T11:26:38.428224,15.42164858,.0001887,53.1586,66.2630,95.5499,264.5723,0,U,68517,999,1086,.18757E-2,.82104E-3,0
STARLINK-36857,2026-068L,2026-06-07T23:39:52.227360,15.34403002,.00018978,53.1582,68.1560,141.3596,218.7543,0,U,68518,999,1079,.71910283E-3,.24E-3,0
STARLINK-36326,2026-068M,2026-06-08T10:45:32.766624,15.34403801,.0000832,53.1583,66.0649,101.1579,258.9517,0,U,68519,999,1086,.64423E-3,.21455E-3,0
STARLINK-37126,2026-068N,2026-06-08T01:07:38.011872,15.34430987,.00012072,53.1574,67.8234,102.1469,257.9669,0,U,68520,999,1080,.15094241E-2,.5102E-3,0
STARLINK-36347,2026-068P,2026-06-08T11:26:40.583040,15.30217249,.0001113,53.1590,67.6561,102.2098,257.9027,0,U,68521,999,1084,.61484E-3,.17904E-3,0
STARLINK-36322,2026-068Q,2026-06-08T10:48:34.064064,15.34395025,.0001113,53.1580,66.0720,117.0072,243.1045,0,U,68522,999,1086,.62926E-3,.2094E-3,0
STARLINK-37208,2026-068R,2026-06-08T00:52:27.735168,15.34380673,.00012888,53.1583,67.7528,73.9180,286.1965,0,U,68523,999,1080,.10537335E-2,.35372E-3,0
STARLINK-36302,2026-068S,2026-06-08T10:57:39.890016,15.34392846,.000138,53.1587,66.1187,76.2973,283.8183,0,U,68524,999,1086,.71561E-3,.23873E-3,0
STARLINK-36311,2026-068T,2026-06-08T20:17:24.388224,15.34404884,.000127,53.1587,64.2769,72.7350,287.3791,0,U,68525,999,1092,.65548E-3,.21838E-3,0
STARLINK-37178,2026-068U,2026-06-08T20:00:03.000384,15.49283800,.0001176,53.1594,63.9319,91.6699,47.1807,0,U,68526,999,589,.37828E-3,.20627E-3,0
STARLINK-37248,2026-068V,2026-06-08T10:50:46.574016,15.34413514,.0001128,53.1582,63.8939,84.6529,275.4602,0,U,68527,999,1089,.13941E-2,.47042E-3,0
STARLINK-37241,2026-068W,2026-06-08T00:45:01.042848,15.30197604,.00009866,53.1584,69.8524,75.7874,284.3236,0,U,68528,999,1077,.75916433E-3,.22191E-3,0
STARLINK-37244,2026-068X,2026-06-08T11:12:48.781728,15.34384181,.0001502,53.1595,66.1852,77.0432,283.0738,0,U,68529,999,1086,.52146E-3,.17274E-3,0
STARLINK-36285,2026-068Y,2026-06-08T00:40:27.789888,15.30191556,.00013688,53.1593,69.8345,81.9049,278.2107,0,U,68530,999,1077,.10969307E-2,.32261E-3,0
STARLINK-36294,2026-068Z,2026-06-08T19:24:33.516000,15.30161503,.0001396,53.1596,66.1743,73.2546,286.8608,0,U,68531,999,1089,.67351E-3,.19617E-3,0
STARLINK-36249,2026-068AA,2026-06-08T11:09:44.728992,15.34410249,.0000361,53.1580,66.1705,304.4507,55.6461,0,U,68532,999,1086,.94538E-3,.31711E-3,0
STARLINK-36252,2026-068AB,2026-06-08T11:00:41.533056,15.34389546,.0001315,53.1600,66.1245,61.4324,298.6811,0,U,68533,999,1086,.66757E-3,.22238E-3,0
